{
  "type": "FeatureCollection",
  "features": [
    {
      "type": "Feature",
      "geometry": {
        "coordinates": [
          16.461704688970784,
          43.50171365154841
        ],
        "type": "Point"
      },
      "properties": {
        "title": "Alex & Ana Hotel",
        "type": "Hotel",
        "date-in": "2026-09-10",
        "date-out": "2026-09-13",
        "guest": "Alex & Ana",
        "address": "Spinčićeva ul. 24, 21000, Split, Croatia",
        "marker-color": "#312E81",
        "marker-size": "medium",
        "marker-symbol": "home"
      }
    }
  ]
}