{
  "type": "FeatureCollection",
  "features": [
    {
      "type": "Feature",
      "geometry": {
        "coordinates": [
          18.10038867116406,
          42.6444481697547
        ],
        "type": "Point"
      },
      "properties": {
        "title": "Taras Hotel",
        "type": "Hotel",
        "date-in": "2026-09-19",
        "date-out": "2026-09-21",
        "guest": "Taras",
        "address": "Ul. branitelja Dubrovnika 32, 20000, Dubrovnik, Croatia",
        "marker-color": "#faff00",
        "marker-size": "medium",
        "marker-symbol": "home"
      }
    },
    {
      "type": "Feature",
      "geometry": {
        "coordinates": [
          18.10038867116406,
          42.6444481697547
        ],
        "type": "Point"
      },
      "properties": {
        "title": "Anand Hotel",
        "type": "Hotel",
        "date-in": "2026-09-19",
        "date-out": "2026-09-21",
        "guest": "Anand",
        "address": "Ul. branitelja Dubrovnika 32, 20000, Dubrovnik, Croatia",
        "marker-color": "#ff7a00",
        "marker-size": "medium",
        "marker-symbol": "home"
      }
    },
    {
      "type": "Feature",
      "geometry": {
        "coordinates": [
          18.0885194,
          42.6571417
        ],
        "type": "Point"
      },
      "properties": {
        "title": "Peter Hotel",
        "type": "Hotel",
        "date-in": "2026-09-19",
        "date-out": "2026-09-21",
        "guest": "Peter",
        "address": "Obala Stjepana Radića 25, 20000, Dubrovnik, Croatia",
        "marker-color": "#2ecc71",
        "marker-size": "medium",
        "marker-symbol": "home"
      }
    }
  ]
}