{
  "type": "FeatureCollection",
  "features": [
    {
      "type": "Feature",
      "geometry": {
        "coordinates": [
          18.061007523963017,
          42.6512690909202
        ],
        "type": "Point"
      },
      "properties": {
        "title": "Eugene & Lydia Hotel",
        "type": "Hotel",
        "date-in": "2026-09-19",
        "date-out": "2026-09-20",
        "guest": "Eugene & Lydia",
        "address": "Masarykov put 20, 20000, Dubrovnik, Croatia",
        "marker-color": "#00ff19",
        "marker-size": "medium",
        "marker-symbol": "home"
      }
    },
    {
      "type": "Feature",
      "geometry": {
        "coordinates": [
          18.10038867116406,
          42.6444481697547
        ],
        "type": "Point"
      },
      "properties": {
        "title": "Taras Hotel",
        "type": "Hotel",
        "date-in": "2026-09-19",
        "date-out": "2026-09-21",
        "guest": "Taras",
        "address": "Ul. branitelja Dubrovnika 32, 20000, Dubrovnik, Croatia",
        "marker-color": "#faff00",
        "marker-size": "medium",
        "marker-symbol": "home"
      }
    },
    {
      "type": "Feature",
      "geometry": {
        "coordinates": [
          18.10038867116406,
          42.6444481697547
        ],
        "type": "Point"
      },
      "properties": {
        "title": "Anand Hotel",
        "type": "Hotel",
        "date-in": "2026-09-19",
        "date-out": "2026-09-21",
        "guest": "Anand",
        "address": "Ul. branitelja Dubrovnika 32, 20000, Dubrovnik, Croatia",
        "marker-color": "#ff7a00",
        "marker-size": "medium",
        "marker-symbol": "home"
      }
    },
    {
      "type": "Feature",
      "geometry": {
        "coordinates": [
          18.061007523963017,
          42.6512690909202
        ],
        "type": "Point"
      },
      "properties": {
        "title": "Lenny Hotel",
        "type": "Hotel",
        "date-in": "2026-09-19",
        "date-out": "2026-09-20",
        "guest": "Lenny",
        "address": "Masarykov put 20, 20000, Dubrovnik, Croatia",
        "marker-color": "#ff00cc",
        "marker-size": "medium",
        "marker-symbol": "home"
      }
    },
    {
      "type": "Feature",
      "geometry": {
        "coordinates": [
          18.0967536,
          42.6490175
        ],
        "type": "Point"
      },
      "properties": {
        "title": "Alex & Ana Hotel",
        "type": "Hotel",
        "date-in": "2026-09-19",
        "date-out": "2026-09-20",
        "guest": "Alex & Ana",
        "address": "Ul. Natka Nodila 3, 20000, Dubrovnik, Croatia",
        "marker-color": "#312E81",
        "marker-size": "medium",
        "marker-symbol": "home"
      }
    },
    {
      "type": "Feature",
      "geometry": {
        "coordinates": [
          18.016574207422302,
          42.69622247318735
        ],
        "type": "Point"
      },
      "properties": {
        "title": "Ken & Betsy Hotel",
        "type": "Hotel",
        "date-in": "2026-09-19",
        "date-out": "2026-09-20",
        "guest": "Ken & Betsy",
        "address": "Na moru 1, 20235, Orašac, Croatia",
        "marker-color": "#1c00ff",
        "marker-size": "medium",
        "marker-symbol": "home"
      }
    },
    {
      "type": "Feature",
      "geometry": {
        "coordinates": [
          18.0885194,
          42.6571417
        ],
        "type": "Point"
      },
      "properties": {
        "title": "Peter Hotel",
        "type": "Hotel",
        "date-in": "2026-09-19",
        "date-out": "2026-09-21",
        "guest": "Peter",
        "address": "Obala Stjepana Radića 25, 20000, Dubrovnik, Croatia",
        "marker-color": "#2ecc71",
        "marker-size": "medium",
        "marker-symbol": "home"
      }
    }
  ]
}