{
  "type": "FeatureCollection",
  "features": [
    {
      "type": "Feature",
      "geometry": {
        "coordinates": [
          16.448992691910835,
          43.50311784486537
        ],
        "type": "Point"
      },
      "properties": {
        "title": "Taras Hotel",
        "type": "Hotel",
        "date-in": "2026-09-11",
        "date-out": "2026-09-13",
        "guest": "Taras",
        "address": "Ul. Vlahe Bukovca 10, 21000, Split, Croatia",
        "marker-color": "#faff00",
        "marker-size": "medium",
        "marker-symbol": "home"
      }
    },
    {
      "type": "Feature",
      "geometry": {
        "coordinates": [
          16.470145859955302,
          43.50290348170675
        ],
        "type": "Point"
      },
      "properties": {
        "title": "Lenny Hotel",
        "type": "Hotel",
        "date-in": "2026-09-11",
        "date-out": "2026-09-13",
        "guest": "Lenny",
        "address": "Put Trstenika 19, 21000, Split, Croatia",
        "marker-color": "#ff00cc",
        "marker-size": "medium",
        "marker-symbol": "home"
      }
    },
    {
      "type": "Feature",
      "geometry": {
        "coordinates": [
          16.461704688970784,
          43.50171365154841
        ],
        "type": "Point"
      },
      "properties": {
        "title": "Alex & Ana Hotel",
        "type": "Hotel",
        "date-in": "2026-09-10",
        "date-out": "2026-09-13",
        "guest": "Alex & Ana",
        "address": "Spinčićeva ul. 24, 21000, Split, Croatia",
        "marker-color": "#312E81",
        "marker-size": "medium",
        "marker-symbol": "home"
      }
    },
    {
      "type": "Feature",
      "geometry": {
        "coordinates": [
          16.456033632995045,
          43.502959376819284
        ],
        "type": "Point"
      },
      "properties": {
        "title": "Kostiantyn & Tatiana Hotel",
        "type": "Hotel",
        "date-in": "2026-09-11",
        "date-out": "2026-09-13",
        "guest": "Kostiantyn & Tatiana",
        "address": "Ul. Petra Hektorovića 40, 21000, Split, Croatia",
        "marker-color": "#00f7ff",
        "marker-size": "medium",
        "marker-symbol": "home"
      }
    }
  ]
}