{
  "type": "FeatureCollection",
  "features": [
    {
      "type": "Feature",
      "geometry": {
        "coordinates": [
          17.13464275050543,
          42.960328170903566
        ],
        "type": "Point"
      },
      "properties": {
        "title": "Eugene & Lydia Hotel",
        "type": "Hotel",
        "date-in": "2026-09-14",
        "date-out": "2026-09-15",
        "guest": "Eugene & Lydia",
        "address": "Ul. Hrvatske Bratske Zajednice 6, 20260, Korčula, Croatia",
        "marker-color": "#00ff19",
        "marker-size": "medium",
        "marker-symbol": "home"
      }
    },
    {
      "type": "Feature",
      "geometry": {
        "coordinates": [
          17.13042517653233,
          42.96117204010059
        ],
        "type": "Point"
      },
      "properties": {
        "title": "Taras Hotel",
        "type": "Hotel",
        "date-in": "2026-09-14",
        "date-out": "2026-09-15",
        "guest": "Taras",
        "address": "Cvjetno Naselje 31, 20260, Korčula, Croatia",
        "marker-color": "#faff00",
        "marker-size": "medium",
        "marker-symbol": "home"
      }
    },
    {
      "type": "Feature",
      "geometry": {
        "coordinates": [
          17.13042517653233,
          42.96117204010059
        ],
        "type": "Point"
      },
      "properties": {
        "title": "Anand Hotel",
        "type": "Hotel",
        "date-in": "2026-09-14",
        "date-out": "2026-09-15",
        "guest": "Anand",
        "address": "Cvjetno Naselje 31, 20260, Korčula, Croatia",
        "marker-color": "#ff7a00",
        "marker-size": "medium",
        "marker-symbol": "home"
      }
    },
    {
      "type": "Feature",
      "geometry": {
        "coordinates": [
          17.13790091846407,
          42.95525109019522
        ],
        "type": "Point"
      },
      "properties": {
        "title": "Lenny Hotel",
        "type": "Hotel",
        "date-in": "2026-09-14",
        "date-out": "2026-09-15",
        "guest": "Lenny",
        "address": "Šetalište Frana Kršinića 33, 20260, Korčula, Croatia",
        "marker-color": "#ff00cc",
        "marker-size": "medium",
        "marker-symbol": "home"
      }
    },
    {
      "type": "Feature",
      "geometry": {
        "coordinates": [
          17.13790091846407,
          42.95525109019522
        ],
        "type": "Point"
      },
      "properties": {
        "title": "Nikolay Hotel",
        "type": "Hotel",
        "date-in": "2026-09-14",
        "date-out": "2026-09-15",
        "guest": "Nikolay",
        "address": "Šetalište Frana Kršinića 33, 20260, Korčula, Croatia",
        "marker-color": "#ff0000",
        "marker-size": "medium",
        "marker-symbol": "home"
      }
    },
    {
      "type": "Feature",
      "geometry": {
        "coordinates": [
          17.136217,
          42.9559791
        ],
        "type": "Point"
      },
      "properties": {
        "title": "Alex & Ana Hotel",
        "type": "Hotel",
        "date-in": "2026-09-14",
        "date-out": "2026-09-15",
        "guest": "Alex & Ana",
        "address": "Ul. Korčulanskih domobrana 52, 20260, Korčula, Croatia",
        "marker-color": "#312E81",
        "marker-size": "medium",
        "marker-symbol": "home"
      }
    },
    {
      "type": "Feature",
      "geometry": {
        "coordinates": [
          17.13790091846407,
          42.95525109019522
        ],
        "type": "Point"
      },
      "properties": {
        "title": "Ken & Betsy Hotel",
        "type": "Hotel",
        "date-in": "2026-09-14",
        "date-out": "2026-09-15",
        "guest": "Ken & Betsy",
        "address": "Šetalište Frana Kršinića 33, 20260, Korčula, Croatia",
        "marker-color": "#1c00ff",
        "marker-size": "medium",
        "marker-symbol": "home"
      }
    }
  ]
}