{
  "type": "FeatureCollection",
  "features": [
    {
      "type": "Feature",
      "geometry": {
        "coordinates": [
          17.161611533860263,
          42.974866274261394
        ],
        "type": "Point"
      },
      "properties": {
        "title": "Eugene & Lydia Hotel",
        "type": "Hotel",
        "date-in": "2026-09-16",
        "date-out": "2026-09-18",
        "guest": "Eugene & Lydia",
        "address": "Šetalište, Ul. kralja Petra Krešimira IV 17, 20250, Orebić, Croatia",
        "marker-color": "#00ff19",
        "marker-size": "medium",
        "marker-symbol": "home"
      }
    },
    {
      "type": "Feature",
      "geometry": {
        "coordinates": [
          17.185833817061074,
          42.97466756223899
        ],
        "type": "Point"
      },
      "properties": {
        "title": "Taras Hotel",
        "type": "Hotel",
        "date-in": "2026-09-16",
        "date-out": "2026-09-18",
        "guest": "Taras",
        "address": "Šetalište Kneza Domagoja 20250, Orebić, Croatia",
        "marker-color": "#faff00",
        "marker-size": "medium",
        "marker-symbol": "home"
      }
    },
    {
      "type": "Feature",
      "geometry": {
        "coordinates": [
          17.185833817061074,
          42.97466756223899
        ],
        "type": "Point"
      },
      "properties": {
        "title": "Anand Hotel",
        "type": "Hotel",
        "date-in": "2026-09-16",
        "date-out": "2026-09-18",
        "guest": "Anand",
        "address": "Šetalište Kneza Domagoja 20250, Orebić, Croatia",
        "marker-color": "#ff7a00",
        "marker-size": "medium",
        "marker-symbol": "home"
      }
    },
    {
      "type": "Feature",
      "geometry": {
        "coordinates": [
          17.161611533860263,
          42.974866274261394
        ],
        "type": "Point"
      },
      "properties": {
        "title": "Lenny Hotel",
        "type": "Hotel",
        "date-in": "2026-09-16",
        "date-out": "2026-09-18",
        "guest": "Lenny",
        "address": "Šetalište, Ul. kralja Petra Krešimira IV 17, 20250, Orebić, Croatia",
        "marker-color": "#ff00cc",
        "marker-size": "medium",
        "marker-symbol": "home"
      }
    },
    {
      "type": "Feature",
      "geometry": {
        "coordinates": [
          17.183859591344135,
          42.97448274672537
        ],
        "type": "Point"
      },
      "properties": {
        "title": "Nikolay Hotel",
        "type": "Hotel",
        "date-in": "2026-09-16",
        "date-out": "2026-09-18",
        "guest": "Nikolay",
        "address": "Ul. Bizarova 1, 20250, Orebić, Croatia",
        "marker-color": "#ff0000",
        "marker-size": "medium",
        "marker-symbol": "home"
      }
    },
    {
      "type": "Feature",
      "geometry": {
        "coordinates": [
          17.1657209,
          42.9746546
        ],
        "type": "Point"
      },
      "properties": {
        "title": "Alex & Ana Hotel",
        "type": "Hotel",
        "date-in": "2026-09-16",
        "date-out": "2026-09-18",
        "guest": "Alex & Ana",
        "address": "Sveti Križ, 20250, Orebić, Croatia",
        "marker-color": "#312E81",
        "marker-size": "medium",
        "marker-symbol": "home"
      }
    },
    {
      "type": "Feature",
      "geometry": {
        "coordinates": [
          17.161611533860263,
          42.974866274261394
        ],
        "type": "Point"
      },
      "properties": {
        "title": "Ken & Betsy Hotel",
        "type": "Hotel",
        "date-in": "2026-09-16",
        "date-out": "2026-09-18",
        "guest": "Ken & Betsy",
        "address": "Šetalište, Ul. kralja Petra Krešimira IV 17, 20250, Orebić, Croatia",
        "marker-color": "#1c00ff",
        "marker-size": "medium",
        "marker-symbol": "home"
      }
    },
    {
      "type": "Feature",
      "geometry": {
        "coordinates": [
          17.180718,
          42.9808349
        ],
        "type": "Point"
      },
      "properties": {
        "title": "Peter Hotel",
        "type": "Hotel",
        "date-in": "2026-09-16",
        "date-out": "2026-09-18",
        "guest": "Peter",
        "address": "Fiskovićeva ul. 30, 20250, Orebić, Croatia",
        "marker-color": "#2ecc71",
        "marker-size": "medium",
        "marker-symbol": "home"
      }
    }
  ]
}